{"type":"FeatureCollection","crs":{"type":"name","properties":{"name":"EPSG:4326"}},"features":[{"type":"Feature","id":1,"geometry":{"type":"Polygon","coordinates":[[[-83.276456411213,42.4000725515292],[-83.2762131153754,42.4000796133129],[-83.2759611207364,42.400086927787],[-83.2757203662063,42.4000939156784],[-83.2757163079166,42.400094034266],[-83.2754168644998,42.4001027249621],[-83.2752121499884,42.4001039093764],[-83.2746869368781,42.4001070548509],[-83.2739428715473,42.4001037358516],[-83.2737789446382,42.4001030042028],[-83.2733112118046,42.4000564556332],[-83.2725203887601,42.3999726693342],[-83.27236008325,42.3999560888675],[-83.2721086689395,42.3999533063224],[-83.271776352229,42.3999604542405],[-83.2716666716844,42.3999628129739],[-83.2715401476688,42.3999655341282],[-83.2710492089838,42.3999760458252],[-83.2708658141776,42.3999945351005],[-83.2706393388561,42.4000173803695],[-83.2700929203585,42.4001004330607],[-83.2698698951069,42.4001342946432],[-83.2692018203614,42.4001996014663],[-83.2690284420067,42.4002010774984],[-83.2678753350827,42.4002157695383],[-83.2666679105997,42.400238207301],[-83.265510617347,42.4002422104149],[-83.2649904013543,42.4002443565011],[-83.2643622849255,42.4002478193324],[-83.2630611305851,42.4002533725552],[-83.2617501473474,42.4002582750442],[-83.2605145983069,42.4002634468387],[-83.259306474969,42.4002702231287],[-83.2580985814933,42.4002777091144],[-83.256824554466,42.4002878674888],[-83.25640233663,42.4002919347371],[-83.2555915844439,42.4003118287553],[-83.2543884187313,42.4003402102201],[-83.253185686357,42.4003714643968],[-83.2519661068647,42.400400469663],[-83.2506715695414,42.4004290783681],[-83.2506067472491,42.4004331522385],[-83.2503725720271,42.4004381621653],[-83.2498528541396,42.4004492800029],[-83.2492982278019,42.4004634843051],[-83.2482196159621,42.4004894241507],[-83.2471096726434,42.4005147748459],[-83.2459599019203,42.4005323386862],[-83.2454057940175,42.400540838744],[-83.2448380046063,42.4005503561613],[-83.2437321619862,42.4005667907581],[-83.2426721749237,42.4005840636225],[-83.2415947853623,42.4006021842654],[-83.240553874106,42.4006187907659],[-83.2395202726584,42.400634199743],[-83.2384843450574,42.4006505666305],[-83.2383700531055,42.4006524188586],[-83.23819737206,42.4006552161485],[-83.2374165886799,42.4006678636791],[-83.2364300738323,42.4006848876485],[-83.2361796428047,42.4006908437631],[-83.2349441620042,42.4007215295067],[-83.2337629074948,42.4007483020157],[-83.232602462447,42.4007695490176],[-83.2313405596064,42.4007933185331],[-83.2301536390256,42.4008222361451],[-83.2288956574416,42.40085060968],[-83.2276341486532,42.4008792040392],[-83.226580108817,42.400903536379],[-83.2264732587646,42.4009060032706],[-83.2252373791527,42.4009346482185],[-83.2240223928714,42.4009633098329],[-83.2228834148771,42.4009940744171],[-83.2217166262946,42.4010242771599],[-83.2213012071405,42.4010346752311],[-83.2205312531435,42.4010542804102],[-83.2195645015541,42.4010819855034],[-83.2192989759333,42.4010975922401],[-83.2185846375741,42.4011122500846],[-83.2183771840065,42.4011188840821],[-83.218194643821,42.4011251393302],[-83.2178901185561,42.4011276450106],[-83.2161793555185,42.4011524295668],[-83.2160213854847,42.4011547677267],[-83.214225915668,42.4011862261707],[-83.2126773239312,42.4012083201247],[-83.2114544301697,42.4012302843585],[-83.2106268286026,42.4012464449913],[-83.2103558214095,42.4012517899654],[-83.2098331307994,42.4012620445098],[-83.2093810486932,42.4012708551389],[-83.2090359102422,42.4012776025854],[-83.208402994274,42.401289968529],[-83.2078339997786,42.4013011823256],[-83.2072831972152,42.401311937885],[-83.2066132536397,42.4013250071883],[-83.2062416122712,42.4013328260545],[-83.2051612873097,42.4013572594262],[-83.2040835167462,42.4013815286002],[-83.2029288081943,42.401407880569],[-83.2015450876817,42.4014413260156],[-83.2001628479917,42.4014735092953],[-83.1986865845302,42.4015118220366],[-83.197530922018,42.4015433315913],[-83.1962728054048,42.4015835879637],[-83.1950156412136,42.401624650587],[-83.1938185409484,42.4016629880888],[-83.1926067288694,42.401701881238],[-83.1913720619328,42.4017415154255],[-83.190074197475,42.4017824624591],[-83.1889086418543,42.4018161229149],[-83.1877626669704,42.4018486240702],[-83.1865971492407,42.4018801903458],[-83.1855148824856,42.4019099092231],[-83.1845172371061,42.4019359965734],[-83.183403837352,42.4019744292157],[-83.182285300186,42.4019955514318],[-83.1812377342123,42.4020258021024],[-83.1801849946515,42.4020548780095],[-83.1791207046678,42.402078060954],[-83.1790225697218,42.3998810863547],[-83.1789015246805,42.3972479955317],[-83.1787915977118,42.3948226493523],[-83.1787068862974,42.3926977630687],[-83.1787042603818,42.3926311368176],[-83.1794505730442,42.3922910643189],[-83.1808825681435,42.3914305460339],[-83.1808906798832,42.3914256714076],[-83.1815836687167,42.3910092232107],[-83.1825262283854,42.3899511130242],[-83.1828340275682,42.3886568173474],[-83.1830030636665,42.3879459978335],[-83.1830031283255,42.3879457265913],[-83.1830418605064,42.3877828482428],[-83.1829910166503,42.3868005155629],[-83.1829905694446,42.3867918834165],[-83.1827499536455,42.3821427627268],[-83.1829356880823,42.3814887174568],[-83.1833693191914,42.3799616745774],[-83.16837745436,42.3803419711867],[-83.1588184992,42.3764195081393],[-83.1520019617726,42.373651346254],[-83.1490691198975,42.3724526584095],[-83.1448665931799,42.3708287917209],[-83.1448468770657,42.3708211729287],[-83.1448291525692,42.3707805996564],[-83.1443160851512,42.3696061220155],[-83.1433342918041,42.369159682293],[-83.1401087772642,42.3676928761306],[-83.1390383901363,42.3672060816611],[-83.1390267075716,42.3639434921574],[-83.1390246755356,42.3633757839844],[-83.1475477180337,42.3632621918542],[-83.1486394777274,42.363247594677],[-83.1481958115107,42.3519057304111],[-83.1481957651862,42.3519045585058],[-83.1673843849192,42.3514969940479],[-83.1966004845378,42.3508885734846],[-83.1965844395183,42.3505902948065],[-83.1962498346412,42.3428045350502],[-83.19611559528,42.3396804328635],[-83.1962034323646,42.3394321433938],[-83.1961265097097,42.336432714058],[-83.1983717254191,42.3364064226745],[-83.2070583591996,42.3363042849061],[-83.2128037855513,42.3361722433793],[-83.2144418319988,42.3361612143334],[-83.2154067500015,42.336133674029],[-83.2153851994078,42.3335823567173],[-83.2152687525189,42.3322108471997],[-83.2153866559885,42.3303303372958],[-83.2153502572351,42.3290173174802],[-83.2153582569334,42.3290171438489],[-83.2252135117219,42.3288029387254],[-83.2271178397668,42.331491459838],[-83.2277347835485,42.3323624015311],[-83.2279010913387,42.3325971752258],[-83.2310680764179,42.3313032481978],[-83.2346455317953,42.3298414453507],[-83.2346531428108,42.329942472547],[-83.2350968950437,42.335831956903],[-83.2362635663847,42.335785646023],[-83.236522969617,42.3357753473102],[-83.2375593526712,42.3357341964263],[-83.2378222776562,42.3426477490878],[-83.2378381647809,42.3430839598147],[-83.243202922297,42.3429814346739],[-83.2442723056999,42.3428948989555],[-83.2466872533864,42.3426356292415],[-83.2536151242753,42.3418915584617],[-83.2585058471583,42.3417298742493],[-83.2608085269687,42.3416950297036],[-83.2614572508077,42.3417093178293],[-83.262457743178,42.341731347376],[-83.2639132035401,42.3416904826934],[-83.2639245217322,42.342093590873],[-83.2640992277307,42.3425834943337],[-83.2642414396137,42.3427931521222],[-83.2643452072919,42.3430871992648],[-83.264333848945,42.3435700942877],[-83.2646035635747,42.3462986510779],[-83.2648557884555,42.3489283742076],[-83.2656473254365,42.357053621293],[-83.2659788998476,42.3570442839955],[-83.2660496830724,42.3622718446916],[-83.2661649004772,42.3630712386909],[-83.2662999226407,42.3667191082889],[-83.2665303001733,42.3729458117557],[-83.2665858881457,42.3744480856334],[-83.2666241737438,42.3768788604653],[-83.2666533940303,42.3787339922188],[-83.2666534319662,42.3787363875774],[-83.2674250767282,42.378716056772],[-83.2732048375708,42.3785636122174],[-83.2753038163532,42.3785081771416],[-83.2753977391876,42.3803751355482],[-83.2755944327822,42.381603457456],[-83.2755982397877,42.382517400625],[-83.2757871119177,42.3835039791404],[-83.2758768646629,42.3848614693404],[-83.2760335625827,42.3886797980225],[-83.2760506992865,42.3892994007978],[-83.276158131478,42.3897849635198],[-83.2761451743029,42.3903095357394],[-83.276456411213,42.4000725515292]]]},"properties":{"OBJECTID_1":1,"NAME":"Cody","TYPE":"High School","School_ID":18,"districtCode":82015,"meapCode":18,"schoolCode":596,"schoolName":"Cody High School","address":"18445 Cathedral Street","zip":"48228-1809","telephone":"(313) 866-9200","fax":"(313) 866-9218","config":"9 - 12, ESE","status":"Active","EC":0,"EL":0,"Mid":0,"High":1,"Type_1":"Secondary","shortName":"Cody","schoolWebsite":"https://www.detroitk12.org/cody","lat":42.3612,"lon":-83.2208,"url":"https://cody.detroitk12.org","ObjectID":100,"Principal":"Jason Solomon"}},{"type":"Feature","id":2,"geometry":{"type":"Polygon","coordinates":[[[-83.1620222797556,42.4064158922773],[-83.1598006302252,42.4050010305393],[-83.1597865626263,42.4046919580727],[-83.1597666098788,42.4043228572531],[-83.1597580037403,42.4041863669854],[-83.1708804206718,42.4038898926667],[-83.1787769601712,42.4037635481575],[-83.1791951897889,42.4037568417128],[-83.1791207046678,42.402078060954],[-83.1801849946515,42.4020548780095],[-83.1812377342123,42.4020258021024],[-83.182285300186,42.4019955514318],[-83.183403837352,42.4019744292157],[-83.1845172371061,42.4019359965734],[-83.1855148824856,42.4019099092231],[-83.1865971492407,42.4018801903458],[-83.1877626669704,42.4018486240702],[-83.1889086418543,42.4018161229149],[-83.190074197475,42.4017824624591],[-83.1913720619328,42.4017415154255],[-83.1926067288694,42.401701881238],[-83.1938185409484,42.4016629880888],[-83.1950156412136,42.401624650587],[-83.1962728054048,42.4015835879637],[-83.197530922018,42.4015433315913],[-83.1986865845302,42.4015118220366],[-83.2001628479917,42.4014735092953],[-83.2015450876817,42.4014413260156],[-83.2029288081943,42.401407880569],[-83.2040835167462,42.4013815286002],[-83.2051612873097,42.4013572594262],[-83.2062416122712,42.4013328260545],[-83.2066132536397,42.4013250071883],[-83.2072831972152,42.401311937885],[-83.2078339997786,42.4013011823256],[-83.208402994274,42.401289968529],[-83.2090359102422,42.4012776025854],[-83.2093810486932,42.4012708551389],[-83.2098331307994,42.4012620445098],[-83.2103558214095,42.4012517899654],[-83.2106268286026,42.4012464449913],[-83.2114544301697,42.4012302843585],[-83.2126773239312,42.4012083201247],[-83.214225915668,42.4011862261707],[-83.2160213854847,42.4011547677267],[-83.2161793555185,42.4011524295668],[-83.2178901185561,42.4011276450106],[-83.218194643821,42.4011251393302],[-83.2183771840065,42.4011188840821],[-83.2185846375741,42.4011122500846],[-83.2192989759333,42.4010975922401],[-83.2195645015541,42.4010819855034],[-83.2205312531435,42.4010542804102],[-83.2213012071405,42.4010346752311],[-83.2217166262946,42.4010242771599],[-83.2228834148771,42.4009940744171],[-83.2240223928714,42.4009633098329],[-83.2252373791527,42.4009346482185],[-83.2264732587646,42.4009060032706],[-83.226580108817,42.400903536379],[-83.2276341486532,42.4008792040392],[-83.2288956574416,42.40085060968],[-83.2301536390256,42.4008222361451],[-83.2313405596064,42.4007933185331],[-83.232602462447,42.4007695490176],[-83.2337629074948,42.4007483020157],[-83.2349441620042,42.4007215295067],[-83.2361796428047,42.4006908437631],[-83.2364300738323,42.4006848876485],[-83.2374165886799,42.4006678636791],[-83.23819737206,42.4006552161485],[-83.2383700531055,42.4006524188586],[-83.2384843450574,42.4006505666305],[-83.2395202726584,42.400634199743],[-83.240553874106,42.4006187907659],[-83.2415947853623,42.4006021842654],[-83.2426721749237,42.4005840636225],[-83.2437321619862,42.4005667907581],[-83.2448380046063,42.4005503561613],[-83.2454057940175,42.400540838744],[-83.2459599019203,42.4005323386862],[-83.2471096726434,42.4005147748459],[-83.2482196159621,42.4004894241507],[-83.2492982278019,42.4004634843051],[-83.2498528541396,42.4004492800029],[-83.2503725720271,42.4004381621653],[-83.2506067472491,42.4004331522385],[-83.2506715695414,42.4004290783681],[-83.2519661068647,42.400400469663],[-83.253185686357,42.4003714643968],[-83.2543884187313,42.4003402102201],[-83.2555915844439,42.4003118287553],[-83.25640233663,42.4002919347371],[-83.256824554466,42.4002878674888],[-83.2580985814933,42.4002777091144],[-83.259306474969,42.4002702231287],[-83.2605145983069,42.4002634468387],[-83.2617501473474,42.4002582750442],[-83.2630611305851,42.4002533725552],[-83.2643622849255,42.4002478193324],[-83.2649904013543,42.4002443565011],[-83.265510617347,42.4002422104149],[-83.2666679105997,42.400238207301],[-83.2678753350827,42.4002157695383],[-83.2690284420067,42.4002010774984],[-83.2692018203614,42.4001996014663],[-83.2698698951069,42.4001342946432],[-83.2700929203585,42.4001004330607],[-83.2706393388561,42.4000173803695],[-83.2708658141776,42.3999945351005],[-83.2710492089838,42.3999760458252],[-83.2715401476688,42.3999655341282],[-83.2716666716844,42.3999628129739],[-83.271776352229,42.3999604542405],[-83.2721086689395,42.3999533063224],[-83.27236008325,42.3999560888675],[-83.2725203887601,42.3999726693342],[-83.2733112118046,42.4000564556332],[-83.2737789446382,42.4001030042028],[-83.2739428715473,42.4001037358516],[-83.2746869368781,42.4001070548509],[-83.2752121499884,42.4001039093764],[-83.2754168644998,42.4001027249621],[-83.2757163079166,42.400094034266],[-83.2757203662063,42.4000939156784],[-83.2759611207364,42.400086927787],[-83.2762131153754,42.4000796133129],[-83.276456411213,42.4000725515292],[-83.2766731614057,42.4072764569743],[-83.2864550478872,42.4069986378904],[-83.2872060058363,42.4254339150285],[-83.2872371563533,42.4261984203388],[-83.2873059836693,42.4278874748059],[-83.287332389445,42.4285519049001],[-83.2874392048343,42.4322378542307],[-83.2876628040631,42.4394970345843],[-83.2877084718496,42.4421015267073],[-83.2877864884089,42.4426104348793],[-83.2877974839413,42.4426821581064],[-83.2684626872527,42.4431559172347],[-83.2588526860133,42.443400546544],[-83.2564020817701,42.4434656849085],[-83.2503596577985,42.4436260680656],[-83.2491742768939,42.4436574961654],[-83.2442742097843,42.4437872820687],[-83.2414449829512,42.443862123043],[-83.2394097970706,42.4439159149043],[-83.2387953724006,42.4439293967889],[-83.2373657051159,42.4439607582072],[-83.2333110682436,42.4440496057802],[-83.2260349912592,42.4442086783419],[-83.2256149229967,42.4442178472976],[-83.2225056730615,42.4442856694185],[-83.2204465117135,42.4443305396412],[-83.2201244207859,42.4443376032845],[-83.2196252551526,42.4443485525551],[-83.2167342242112,42.444411915374],[-83.2137793441877,42.4444904335256],[-83.205938216859,42.4446872669119],[-83.2041991929086,42.4447308475006],[-83.1958034580153,42.4387044023124],[-83.1910092691669,42.4340494937239],[-83.1875527459936,42.4307919402751],[-83.1793179965481,42.4237992253873],[-83.1758932789996,42.4199828546841],[-83.1725539852209,42.4163065984432],[-83.1704477799326,42.4140970158697],[-83.1663962105673,42.4102292893974],[-83.1635317747114,42.4074950764232],[-83.1620222797556,42.4064158922773]]]},"properties":{"OBJECTID_1":2,"NAME":"Ford","TYPE":"High School","School_ID":1634,"districtCode":82015,"meapCode":1634,"schoolCode":532,"schoolName":"Henry Ford High School","address":"20000 Evergreen Road","zip":"48219-2075","telephone":"(313) 494-7567","fax":"(313) 494-7565","config":"9 - 12, ESE","status":"Active","EC":0,"EL":0,"Mid":0,"High":1,"Type_1":"Secondary","shortName":"Ford","schoolWebsite":"https://www.detroitk12.org/ford","lat":42.4384,"lon":-83.2391,"url":"https://ford.detroitk12.org","ObjectID":87,"Principal":"Shannan Richardson"}},{"type":"Feature","id":3,"geometry":{"type":"Polygon","coordinates":[[[-83.11319230122,42.396289415045],[-83.1308609331246,42.3897331173919],[-83.1353601922304,42.3880346457417],[-83.1358356691948,42.3878499362015],[-83.1386758006165,42.386746559422],[-83.1393400908615,42.3865462788206],[-83.1394694789733,42.3865072675526],[-83.1395037897203,42.3864969227665],[-83.1398632882886,42.3946581207715],[-83.1400180092741,42.3954284844742],[-83.140400297693,42.3954193912113],[-83.1410175582606,42.395404795653],[-83.1415709829682,42.395399046945],[-83.1421400808378,42.3953931331766],[-83.142685729167,42.3953874743772],[-83.1432598079314,42.3953815195389],[-83.1438205227089,42.3953756538195],[-83.144452669093,42.3953695113776],[-83.1450810263462,42.3953645572993],[-83.1456360022633,42.3953601794725],[-83.1461914651609,42.3953558014667],[-83.1467525153709,42.3953513781128],[-83.1473060440743,42.3953463202005],[-83.1478729771183,42.395339276712],[-83.1484232286281,42.3953341952978],[-83.148974430551,42.3953302018758],[-83.1500809721857,42.3953218011369],[-83.1511095312147,42.3953132753611],[-83.1521359149519,42.395304086741],[-83.153163150808,42.395294717876],[-83.154189174841,42.3952852367489],[-83.155221151253,42.3952757198075],[-83.1562475407502,42.3952661339531],[-83.157274773088,42.3952569079574],[-83.1583017343354,42.3952491104118],[-83.158816850361,42.3952454974671],[-83.159341990616,42.3952384736292],[-83.1598592604555,42.3952301950355],[-83.1603986574982,42.3952209785896],[-83.1609310100492,42.3952115776543],[-83.1614637342914,42.3952018522294],[-83.1617935313775,42.3951956271102],[-83.1625265588227,42.3951716739693],[-83.1633743223779,42.395151192594],[-83.1635982719964,42.3951484633889],[-83.1690447576478,42.3950289443166],[-83.1689967046327,42.3936126842387],[-83.1689722224787,42.3935446476697],[-83.1689640008877,42.3933761382622],[-83.1749522457572,42.3933290453691],[-83.1775874054651,42.3929794052368],[-83.1787029113723,42.3926315575932],[-83.1787039940078,42.3926312195679],[-83.1787042603818,42.3926311368176],[-83.1787068862974,42.3926977630687],[-83.1787915977118,42.3948226493523],[-83.1789015246805,42.3972479955317],[-83.1790225697218,42.3998810863547],[-83.1791207046678,42.402078060954],[-83.1791951897889,42.4037568417128],[-83.1787769601712,42.4037635481575],[-83.1708804206718,42.4038898926667],[-83.1597580037403,42.4041863669854],[-83.1597666098788,42.4043228572531],[-83.1597865626263,42.4046919580727],[-83.1598006302252,42.4050010305393],[-83.1620222797556,42.4064158922773],[-83.1635317747114,42.4074950764232],[-83.1663962105673,42.4102292893974],[-83.1704477799326,42.4140970158697],[-83.1725539852209,42.4163065984432],[-83.1758932789996,42.4199828546841],[-83.1793179965481,42.4237992253873],[-83.1875527459936,42.4307919402751],[-83.1910092691669,42.4340494937239],[-83.1958034580153,42.4387044023124],[-83.2041991929086,42.4447308475006],[-83.1999205441628,42.4448871927109],[-83.1982845422176,42.4449789616856],[-83.1932048303974,42.4450942644243],[-83.1858641368201,42.4452428267645],[-83.181207864459,42.4453377093335],[-83.1786741162941,42.4453892596855],[-83.1734886220062,42.4454960712376],[-83.1674477474987,42.4456616414145],[-83.1658563418629,42.4457052055442],[-83.1615029491983,42.4457922317805],[-83.1614796134163,42.4457927442924],[-83.1612670214504,42.4457974140673],[-83.155689228183,42.445919792349],[-83.1535794044732,42.4459699770838],[-83.1521554964702,42.446001859883],[-83.1493072637735,42.4460655819651],[-83.1469824132143,42.4461175425494],[-83.1423397590947,42.4462223677268],[-83.1398939466666,42.4462731992903],[-83.1331093803802,42.4463933650997],[-83.127727464592,42.4464883752283],[-83.1253195405124,42.446560794262],[-83.1250651423493,42.4465660203115],[-83.1240715324446,42.4450026713337],[-83.120287381605,42.4392582738479],[-83.1154551553329,42.4321083879764],[-83.1130291152383,42.4286529407844],[-83.111576322692,42.4266177185581],[-83.1051921283032,42.4177500060021],[-83.1057001160274,42.4177438326114],[-83.1095999542624,42.4176963663777],[-83.1140858253531,42.4176186077109],[-83.1164310071476,42.4175778842853],[-83.1175023843254,42.4175588254622],[-83.1219229824598,42.4174800759712],[-83.1186758210996,42.412717387966],[-83.1176397477895,42.4110872475508],[-83.1157018415684,42.4082191741568],[-83.1140022504934,42.4057937085602],[-83.1132460342776,42.4045878408827],[-83.1120806923106,42.403029888366],[-83.1093979971943,42.3991075898589],[-83.1090624686875,42.3986169818882],[-83.1090625878761,42.3986169147778],[-83.1093657912183,42.3984460412768],[-83.1107115889988,42.3976875798559],[-83.1107864133708,42.3976454088272],[-83.11319230122,42.396289415045]]]},"properties":{"OBJECTID_1":3,"NAME":"Mumford","TYPE":"High School","School_ID":2644,"districtCode":82015,"meapCode":2644,"schoolCode":550,"schoolName":"Mumford High School","address":"17525 Wyoming Street","zip":"48221-2414","telephone":"(313) 416-7400","fax":"(313) 416-7567","config":"9 - 12, ESE","status":"Active","EC":0,"EL":0,"Mid":0,"High":1,"Type_1":"Secondary","shortName":"Mumford","schoolWebsite":"https://www.detroitk12.org/mumford","lat":42.4206,"lon":-83.1606,"url":"https://mumford.detroitk12.org","ObjectID":89,"Principal":"Nolan Procter"}},{"type":"Feature","id":4,"geometry":{"type":"Polygon","coordinates":[[[-83.0392130412015,42.4480289952765],[-83.0388798703914,42.4335901383471],[-83.0381573795251,42.4190842822136],[-83.0356030462318,42.4191388333245],[-83.0355907450589,42.4091722288914],[-83.0424692578385,42.3984992191363],[-83.0425363959852,42.4043826544414],[-83.051550104328,42.4044263647933],[-83.0540137615875,42.4044381879703],[-83.057062299223,42.4089796792935],[-83.0591506172443,42.4082126558008],[-83.0684114007611,42.404810545094],[-83.0693473833331,42.4044666330986],[-83.0704361562694,42.4040665657824],[-83.0721286541732,42.4034446302088],[-83.0724678006402,42.4032940245478],[-83.0727346368496,42.4031755291101],[-83.073106145611,42.4030105488402],[-83.0734479778408,42.4029068565931],[-83.0763919648415,42.4018432165265],[-83.0870257471237,42.4149469717577],[-83.0895444652392,42.4180878673398],[-83.0948195334227,42.4180212585066],[-83.0951795592063,42.418021359617],[-83.0954029697228,42.4180214239631],[-83.0963932863858,42.4180066128054],[-83.0973887336229,42.4179723576405],[-83.0976330673358,42.4179630233966],[-83.098406938799,42.4179363669293],[-83.0996865927834,42.4178912175441],[-83.1010697814818,42.4178459573357],[-83.1018031644003,42.4178269222263],[-83.1034307149436,42.4177899961958],[-83.1049251270592,42.417756069522],[-83.1051921283032,42.4177500060021],[-83.111576322692,42.4266177185581],[-83.1130291152383,42.4286529407844],[-83.1154551553329,42.4321083879764],[-83.120287381605,42.4392582738479],[-83.1240715324446,42.4450026713337],[-83.1250651423493,42.4465660203115],[-83.1129219525197,42.4469663892296],[-83.1017290559281,42.4471864596193],[-83.0974317365937,42.4468182890296],[-83.0902609091711,42.4469948933893],[-83.0836164246769,42.4471485940193],[-83.0833778578826,42.447018363167],[-83.083183695455,42.447165802829],[-83.077607092882,42.4472415992121],[-83.0751717276772,42.4472746138304],[-83.0730084214432,42.4473038964151],[-83.0639019218603,42.4473433496303],[-83.0540557601409,42.4476604311365],[-83.0486310660464,42.4477902359346],[-83.0449224234733,42.447888631785],[-83.0426695657697,42.4479483442555],[-83.0392132924158,42.4480398661064],[-83.0392130412015,42.4480289952765]]]},"properties":{"OBJECTID_1":4,"NAME":"Pershing","TYPE":"High School","School_ID":3015,"districtCode":82015,"meapCode":3015,"schoolCode":568,"schoolName":"Pershing High School","address":"18875 Ryan Road","zip":"48234-1917","telephone":"(313) 866-7700","fax":"(313) 456-6275","config":"9 - 12, ESE","status":"Active","EC":0,"EL":0,"Mid":0,"High":1,"Type_1":"Secondary","shortName":"Pershing","schoolWebsite":"https://www.detroitk12.org/pershing","lat":42.4322,"lon":-83.0643,"url":"https://pershing.detroitk12.org","ObjectID":92,"Principal":""}},{"type":"Feature","id":5,"geometry":{"type":"Polygon","coordinates":[[[-82.9882268726842,42.4190584182756],[-82.9886966887339,42.4183429744888],[-82.9888019621543,42.418181816275],[-82.9891478889692,42.4176499936373],[-82.9893668566801,42.4173152968556],[-82.9894732396482,42.417152766668],[-82.9902181019336,42.4160206068883],[-82.9909314926937,42.4149312039118],[-82.9909962388672,42.4148303949774],[-82.9911422277882,42.4146078169806],[-82.9911674655086,42.4145709299939],[-82.9921043113134,42.4131409555317],[-82.9924660610709,42.4125888754087],[-82.9932204787506,42.4114371836358],[-82.9933753801074,42.4112008064803],[-82.9939757577403,42.4102837867675],[-82.9944986556012,42.4094807706645],[-82.9965573958746,42.406333229775],[-82.9974949306005,42.4049078328096],[-82.9980406521191,42.4040786448047],[-82.9986243980317,42.4031795386276],[-82.9987764400527,42.402947133251],[-82.999735783842,42.4014761270293],[-83.0004515355712,42.4003795037045],[-83.0008355246602,42.3997925498596],[-83.0013467959107,42.3990091274782],[-83.0017062977127,42.3984612209912],[-83.0018474430323,42.3982454672096],[-83.0022951338552,42.3975607689076],[-83.0034796665202,42.3957547160709],[-83.0038883171753,42.3951320724947],[-83.0039622652178,42.3950295761001],[-83.0045180434229,42.3941970335987],[-83.0049410264723,42.3935564195272],[-83.0052213100751,42.3931311830704],[-83.0053754308649,42.3928985628984],[-83.0059725926174,42.391995760658],[-83.0060297508193,42.3919091053926],[-83.0061037319337,42.3917931658126],[-83.0062677538593,42.3915356046211],[-83.0063654825616,42.3913949178581],[-83.0198409432298,42.3859382469611],[-83.0273415365221,42.3844144349947],[-83.0289004662544,42.3838059170204],[-83.029753079167,42.3832212766454],[-83.0311234720523,42.3816763462686],[-83.031879647054,42.380778076478],[-83.0318592609863,42.3807325273614],[-83.0318485387946,42.3806944040639],[-83.0318477050052,42.3806425307101],[-83.0318681181341,42.3805796520082],[-83.032363470349,42.3797857307678],[-83.0324502957855,42.3796553813712],[-83.032625268737,42.3794574969343],[-83.0328850860929,42.379256962238],[-83.0331705438408,42.379084548017],[-83.0334174684445,42.3789511869833],[-83.0337479981641,42.3791918740895],[-83.0338668798345,42.3792778188307],[-83.0342989879325,42.3795903795164],[-83.0344677397758,42.3797124740064],[-83.0346672868631,42.3798655433769],[-83.0347580288091,42.3799555681544],[-83.0348175852154,42.3800273089488],[-83.0356244319737,42.3811523297359],[-83.0369518059164,42.3830031470374],[-83.037001426676,42.3830723328674],[-83.037516022162,42.3837898578559],[-83.0380678418401,42.3845687752911],[-83.0386992849033,42.3854820614336],[-83.0391581253781,42.3859822109795],[-83.0395117239475,42.3863028201004],[-83.0396465548082,42.38641190801],[-83.0401553509868,42.3868170957676],[-83.0411852714172,42.3876373270875],[-83.041967134353,42.3882599874807],[-83.0427266277594,42.3888646984276],[-83.042862256771,42.3889700072773],[-83.042948298273,42.3890434461399],[-83.0435331936798,42.3895003322787],[-83.0436572258605,42.3896063721248],[-83.0439818399034,42.3898838931283],[-83.044347285552,42.3901799606575],[-83.0422934146983,42.3902126463994],[-83.0423335393711,42.3923033773942],[-83.0423633601821,42.3938571268219],[-83.0423993259836,42.3946294640447],[-83.0424392325486,42.3966627696006],[-83.0424692578385,42.3984992191363],[-83.0355907450589,42.4091722288914],[-83.0356030462318,42.4191388333245],[-83.0381573795251,42.4190842822136],[-83.0388798703914,42.4335901383471],[-83.0392130412015,42.4480289952765],[-83.0392132924158,42.4480398661064],[-83.038449116783,42.4480467768717],[-83.0345133369539,42.4480822860566],[-83.0324057392291,42.44813093328],[-83.0259609149088,42.4482794469485],[-83.0247423334611,42.4483074871356],[-83.0218678686971,42.448376985214],[-83.020933299629,42.4484031551755],[-83.0150359306208,42.4485681160344],[-83.0126633888924,42.4486499045104],[-83.0093386200376,42.4487644362709],[-83.0070167525607,42.4488896563549],[-83.0056678039554,42.4489364857242],[-83.0050096562051,42.4489593277874],[-83.0050095029156,42.4489593322541],[-82.9879766079436,42.4493717413903],[-82.985652853744,42.4494278040951],[-82.9832445191072,42.4494896773172],[-82.9709122171566,42.4498057104233],[-82.9678140296932,42.4499836744899],[-82.9679291796308,42.4498342462116],[-82.9685318231415,42.4489436074963],[-82.9691414211568,42.4480221426237],[-82.969749586309,42.447104078646],[-82.9703619696221,42.446181381243],[-82.9707721494086,42.445563150095],[-82.970978254697,42.4452543210925],[-82.9715665578952,42.4443582020578],[-82.9721995965069,42.4434035517037],[-82.9727981209624,42.4424994005769],[-82.9733495111037,42.4416631931434],[-82.9739146017723,42.4408151061909],[-82.9744547599392,42.4399831392986],[-82.9745935471412,42.4397725208862],[-82.9749747950657,42.4391940796781],[-82.9753633577042,42.4386034811357],[-82.9756836146263,42.4381155933391],[-82.9764720704879,42.4369198162185],[-82.9776868032849,42.4350760642088],[-82.9794789424504,42.4323574454731],[-82.9796691354093,42.432069202494],[-82.9800668694665,42.4314666351494],[-82.9801575793696,42.4313283574421],[-82.9806419985871,42.4305947159787],[-82.9811699541897,42.4297935174962],[-82.9816653172896,42.4290430280005],[-82.9817302171555,42.4289446831448],[-82.9819317268046,42.4286384230257],[-82.983059683706,42.426927991587],[-82.9835478779447,42.4261937199081],[-82.9840859906065,42.4253737766783],[-82.9841896424309,42.4252155741304],[-82.9846258136361,42.4245526813103],[-82.9851540270116,42.4237503511069],[-82.985632044995,42.4230243940662],[-82.9861538561212,42.4222291300717],[-82.9862046244566,42.4221516736375],[-82.9863139501738,42.4219847051202],[-82.9866710525584,42.4214405807],[-82.9868176842354,42.4212177077988],[-82.9871629031199,42.4206865125436],[-82.9873717783542,42.4203690406516],[-82.987689808346,42.4198854159373],[-82.9880472188384,42.4193352773089],[-82.9882268726842,42.4190584182756]]]},"properties":{"OBJECTID_1":5,"NAME":"Osborn","TYPE":"High School","School_ID":32,"districtCode":82015,"meapCode":32,"schoolCode":566,"schoolName":"Osborn High School","address":"11600 E. 7 Mile Road","zip":"48205-2112","telephone":"(313) 866-0343","fax":"(313) 748-6140","config":"9 - 12, ESE","status":"Active","EC":0,"EL":0,"Mid":0,"High":1,"Type_1":"Secondary","shortName":"Osborn","schoolWebsite":"https://www.detroitk12.org/osborn","lat":42.4344,"lon":-83.0047,"url":"https://osborn.detroitk12.org","ObjectID":91,"Principal":""}},{"type":"Feature","id":6,"geometry":{"type":"Polygon","coordinates":[[[-83.0016001040228,42.3918098489183],[-83.0063654825616,42.3913949178581],[-83.0062677538593,42.3915356046211],[-83.0061037319337,42.3917931658126],[-83.0060297508193,42.3919091053926],[-83.0059725926174,42.391995760658],[-83.0053754308649,42.3928985628984],[-83.0052213100751,42.3931311830704],[-83.0049410264723,42.3935564195272],[-83.0045180434229,42.3941970335987],[-83.0039622652178,42.3950295761001],[-83.0038883171753,42.3951320724947],[-83.0034796665202,42.3957547160709],[-83.0022951338552,42.3975607689076],[-83.0018474430323,42.3982454672096],[-83.0017062977127,42.3984612209912],[-83.0013467959107,42.3990091274782],[-83.0008355246602,42.3997925498596],[-83.0004515355712,42.4003795037045],[-82.999735783842,42.4014761270293],[-82.9987764400527,42.402947133251],[-82.9986243980317,42.4031795386276],[-82.9980406521191,42.4040786448047],[-82.9974949306005,42.4049078328096],[-82.9965573958746,42.406333229775],[-82.9944986556012,42.4094807706645],[-82.9939757577403,42.4102837867675],[-82.9933753801074,42.4112008064803],[-82.9932204787506,42.4114371836358],[-82.9924660610709,42.4125888754087],[-82.9921043113134,42.4131409555317],[-82.9911674655086,42.4145709299939],[-82.9911422277882,42.4146078169806],[-82.9909962388672,42.4148303949774],[-82.9909314926937,42.4149312039118],[-82.9902181019336,42.4160206068883],[-82.9894732396482,42.417152766668],[-82.9893668566801,42.4173152968556],[-82.9891478889692,42.4176499936373],[-82.9888019621543,42.418181816275],[-82.9886966887339,42.4183429744888],[-82.9882268726842,42.4190584182756],[-82.9880472188384,42.4193352773089],[-82.987689808346,42.4198854159373],[-82.9873717783542,42.4203690406516],[-82.9871629031199,42.4206865125436],[-82.9868176842354,42.4212177077988],[-82.9866710525584,42.4214405807],[-82.9863139501738,42.4219847051202],[-82.9862046244566,42.4221516736375],[-82.9861538561212,42.4222291300717],[-82.985632044995,42.4230243940662],[-82.9851540270116,42.4237503511069],[-82.9846258136361,42.4245526813103],[-82.9841896424309,42.4252155741304],[-82.9840859906065,42.4253737766783],[-82.9835478779447,42.4261937199081],[-82.983059683706,42.426927991587],[-82.9819317268046,42.4286384230257],[-82.9817302171555,42.4289446831448],[-82.9816653172896,42.4290430280005],[-82.9811699541897,42.4297935174962],[-82.9806419985871,42.4305947159787],[-82.9801575793696,42.4313283574421],[-82.9800668694665,42.4314666351494],[-82.9796691354093,42.432069202494],[-82.9794789424504,42.4323574454731],[-82.9776868032849,42.4350760642088],[-82.9764720704879,42.4369198162185],[-82.9756836146263,42.4381155933391],[-82.9753633577042,42.4386034811357],[-82.9749747950657,42.4391940796781],[-82.9745935471412,42.4397725208862],[-82.9744547599392,42.4399831392986],[-82.9739146017723,42.4408151061909],[-82.9733495111037,42.4416631931434],[-82.9727981209624,42.4424994005769],[-82.9721995965069,42.4434035517037],[-82.9715665578952,42.4443582020578],[-82.970978254697,42.4452543210925],[-82.9707721494086,42.445563150095],[-82.9703619696221,42.446181381243],[-82.969749586309,42.447104078646],[-82.9691414211568,42.4480221426237],[-82.9685318231415,42.4489436074963],[-82.9679291796308,42.4498342462116],[-82.9678140296932,42.4499836744899],[-82.9678123630656,42.4499837701349],[-82.9674389321213,42.4500052151929],[-82.9561988152639,42.450211187664],[-82.9459985151245,42.450372887616],[-82.9429967478186,42.4503360293356],[-82.9406026972681,42.4503712928147],[-82.9422908368953,42.4486056693892],[-82.9515936601305,42.4362954165634],[-82.9509949286215,42.4362710105792],[-82.9513474779238,42.4358071436693],[-82.9368455072256,42.4298722369439],[-82.9377703598494,42.4286907214904],[-82.9367690778995,42.4283212758974],[-82.9397683860952,42.4244487948262],[-82.9319869844374,42.4212222623194],[-82.9314066648755,42.4210108995822],[-82.9330403254546,42.4192556675182],[-82.9346861992143,42.4179788457161],[-82.9370442343159,42.416867125852],[-82.9374299041437,42.4165036846573],[-82.9385840959092,42.4158536805629],[-82.9430096754431,42.4124756174538],[-82.947129610499,42.4093067258639],[-82.9487714710888,42.4082714306911],[-82.949114692011,42.4081227962213],[-82.9516648675867,42.4072587546403],[-82.9525704366655,42.4070146389404],[-82.9548559323602,42.4063985357735],[-82.9561870229812,42.4060397089536],[-82.9598804160832,42.4048791789008],[-82.9637240264465,42.403602789159],[-82.9694390946982,42.4022845642157],[-82.9729954280439,42.401496679799],[-82.9762472464299,42.4007761431781],[-82.982184768723,42.3990314149332],[-82.9832568352717,42.3986268380358],[-82.9859410979685,42.397613784445],[-82.9882064963245,42.3959854609952],[-82.9889479943579,42.3954016601097],[-82.9904639532647,42.394208054333],[-82.9921976640158,42.3932234243825],[-82.9940562758163,42.3924318271379],[-82.9965538564385,42.3919591765703],[-83.0016001040228,42.3918098489183]]]},"properties":{"OBJECTID_1":6,"NAME":"Denby","TYPE":"High School","School_ID":902,"districtCode":82015,"meapCode":902,"schoolCode":524,"schoolName":"Denby High School","address":"12800 Kelly Road","zip":"48224-1506","telephone":"(313) 866-7200","fax":"(313) 866-2038","config":"9 - 12, ESE","status":"Active","EC":0,"EL":0,"Mid":0,"High":1,"Type_1":"Secondary","shortName":"Denby","schoolWebsite":"https://www.detroitk12.org/denby","lat":42.4247,"lon":-82.9604,"url":"https://denby.detroitk12.org","ObjectID":84,"Principal":"Kianta Bankston"}},{"type":"Feature","id":7,"geometry":{"type":"Polygon","coordinates":[[[-82.937195991366,42.3892868508434],[-82.9463193254279,42.3875185635848],[-82.9466351733166,42.387467894758],[-82.9467252059686,42.3870412049532],[-82.9468670646284,42.3869882977168],[-82.9457163084546,42.3853426362498],[-82.945789870434,42.3853143829792],[-82.9429915481133,42.3810370733036],[-82.9428283345757,42.3810927800519],[-82.9424043022862,42.3804557098821],[-82.9425625176293,42.3803934787252],[-82.9396717198436,42.3759867142605],[-82.939640716481,42.375993392037],[-82.9395806688462,42.376001954914],[-82.9395191175806,42.3760054267645],[-82.9394667543456,42.3760032747654],[-82.9394168748039,42.3759909152282],[-82.9393725139788,42.3759669582345],[-82.9393443699934,42.3759353677864],[-82.9388965112048,42.3751303707576],[-82.9387528366481,42.3747401564546],[-82.9303446277793,42.362138228743],[-82.93093798138,42.3619010421614],[-82.9284238528454,42.3580896244884],[-82.9286571721512,42.358002257839],[-82.9272318072419,42.3564523267259],[-82.9240379896635,42.3521215516934],[-82.9454757697336,42.3473946870439],[-82.9472259188908,42.3465045128017],[-82.9529570214057,42.3535415652462],[-82.9580115489442,42.3597472116593],[-82.9643178192725,42.3690105290105],[-82.9688651392402,42.375821406172],[-82.9732046662629,42.3823041907887],[-82.9723149983375,42.3827976268856],[-82.9720658169808,42.382926298171],[-82.9717261105494,42.3830894234699],[-82.9715333159607,42.3831676424627],[-82.9714802008529,42.3831868144042],[-82.971233211451,42.3832759671167],[-82.9710038231666,42.3833503139358],[-82.9707299809059,42.3834301466384],[-82.9706702235171,42.3834421277406],[-82.970468898244,42.3834824926963],[-82.9701175254971,42.3835424618314],[-82.9697630041335,42.3835911359096],[-82.9694060648796,42.3836284338484],[-82.9691369494899,42.3836488932109],[-82.9688672485375,42.3836629517495],[-82.9685969641213,42.3836705194429],[-82.968310068745,42.3836713989181],[-82.9678340516369,42.383694709661],[-82.968056946694,42.3840404251358],[-82.9681421329554,42.3841630309895],[-82.9682032525561,42.3842431106992],[-82.9683636984207,42.3844269695199],[-82.9683903405967,42.3844568043405],[-82.96845979564,42.3845345842224],[-82.9685002063255,42.384587725733],[-82.9685342637764,42.384632514148],[-82.9685560984754,42.3846612281417],[-82.9686256778002,42.3847527273421],[-82.9690074954528,42.3853348665718],[-82.9690909937277,42.3854462856855],[-82.9691946020373,42.3855599331378],[-82.9707543937804,42.3870684112269],[-82.9709844283497,42.3872913353207],[-82.9711504445849,42.3874522185254],[-82.9712097835789,42.3874957284253],[-82.9712900611536,42.3875438166877],[-82.9714485466547,42.387611863725],[-82.9724055961116,42.3879845230424],[-82.9732813389596,42.388300243453],[-82.9735520927317,42.388397658966],[-82.9758397282876,42.3893306843591],[-82.9760199914628,42.3892860953495],[-82.9767717393425,42.3895042853781],[-82.9771519064349,42.3896351545188],[-82.9784922446331,42.3900965542618],[-82.9787680544396,42.3902131078019],[-82.9788495225923,42.3902475088976],[-82.9791530996379,42.3904209470428],[-82.9794611875504,42.3906210918196],[-82.9802723031107,42.3911480163303],[-82.9806271898444,42.3913784888406],[-82.9808310200587,42.391510860604],[-82.9813973996125,42.3918787982306],[-82.9821305967003,42.3923550952111],[-82.9823472149642,42.3925013523325],[-82.9826125156066,42.3926434301035],[-82.9832072142081,42.3929362368985],[-82.9836185500089,42.3931419110091],[-82.9837713393427,42.3932306617635],[-82.9838799116253,42.3933030266188],[-82.9842553641323,42.3935945601174],[-82.9847795914715,42.3940357510475],[-82.9849141272921,42.3941426466191],[-82.9851230535303,42.3943079196477],[-82.9858145531464,42.3946889853948],[-82.9863646604142,42.3950869032409],[-82.9882064963245,42.3959854609952],[-82.9859410979685,42.397613784445],[-82.9832568352717,42.3986268380358],[-82.982184768723,42.3990314149332],[-82.9762472464299,42.4007761431781],[-82.9729954280439,42.401496679799],[-82.9694390946982,42.4022845642157],[-82.9637240264465,42.403602789159],[-82.9598804160832,42.4048791789008],[-82.9561870229812,42.4060397089536],[-82.9548559323602,42.4063985357735],[-82.9525704366655,42.4070146389404],[-82.9516648675867,42.4072587546403],[-82.949114692011,42.4081227962213],[-82.9487714710888,42.4082714306911],[-82.947129610499,42.4093067258639],[-82.9430096754431,42.4124756174538],[-82.9385840959092,42.4158536805629],[-82.9374299041437,42.4165036846573],[-82.9370442343159,42.416867125852],[-82.9346861992143,42.4179788457161],[-82.9330403254546,42.4192556675182],[-82.9314066648755,42.4210108995822],[-82.9319869844374,42.4212222623194],[-82.9397683860952,42.4244487948262],[-82.9367690778995,42.4283212758974],[-82.9377703598494,42.4286907214904],[-82.9368455072256,42.4298722369439],[-82.9145557024589,42.4206461260022],[-82.9142715631246,42.4206105263463],[-82.9135851466528,42.420327289347],[-82.9133789286644,42.4201548850037],[-82.9105255032754,42.4190195721307],[-82.9104132250912,42.4190132824939],[-82.9105369802206,42.4177986126421],[-82.910623977601,42.4171878614656],[-82.9109353009797,42.4160185165673],[-82.9121038418769,42.4134064222995],[-82.918698911669,42.3995558696213],[-82.9217080260429,42.395297737968],[-82.9223897625833,42.3948276770135],[-82.9273598180531,42.3929053306154],[-82.931921375185,42.3910594538663],[-82.9354936189372,42.3897803622911],[-82.937195991366,42.3892868508434]]]},"properties":{"OBJECTID_1":7,"NAME":"East English Village","TYPE":"High School","School_ID":1189,"districtCode":82015,"meapCode":1189,"schoolCode":581,"schoolName":"East English Village Preparatory Academy","address":"5020 Cadieux","zip":"48224","telephone":"(313) 922-5600","fax":"(313) 922-5576","config":"9 - 12, ESE","status":"Active","EC":0,"EL":0,"Mid":0,"High":1,"Type_1":"Secondary","shortName":"EEVPA","schoolWebsite":"https://www.detroitk12.org/eevpa","lat":42.4074,"lon":-82.9297,"url":"https://eevpa.detroitk12.org","ObjectID":95,"Principal":"Myron Montgomery"}},{"type":"Feature","id":8,"geometry":{"type":"Polygon","coordinates":[[[-83.1025959296584,42.3880839228895],[-83.101028654379,42.3857888182523],[-83.1049624677106,42.3843887066018],[-83.1047892800804,42.3841375884229],[-83.1045155480153,42.3837411647366],[-83.1042333994092,42.3833290005825],[-83.1039344234114,42.3828918318219],[-83.1034189366938,42.3820894847599],[-83.1027679742156,42.381178725],[-83.1026491020606,42.3810036251628],[-83.102310137585,42.3805063445836],[-83.1019665606242,42.3800033372499],[-83.1018467270951,42.3798279556913],[-83.1015636794478,42.3794126914992],[-83.1012689872083,42.3789788368382],[-83.1009759380323,42.3785480601289],[-83.1006806456151,42.3781143799324],[-83.100387119868,42.3776832496381],[-83.1000850952991,42.3772467780157],[-83.0998896250302,42.3769580962414],[-83.0996641562249,42.3767309321919],[-83.0993043701495,42.3764390722937],[-83.0994506052844,42.37638218131],[-83.1028812951945,42.3751202229426],[-83.1049646206829,42.3743457309506],[-83.1055772455764,42.3741176235171],[-83.1061833824394,42.3738918718696],[-83.1079907680733,42.3732187245479],[-83.1084987432114,42.3730298520851],[-83.1087895731578,42.3734695867175],[-83.1176226572712,42.3701479440059],[-83.118209199595,42.3699264154492],[-83.1193619453613,42.3694916796791],[-83.1199193624381,42.3692808072467],[-83.1202459183525,42.3691567169284],[-83.1211278378737,42.3688262124348],[-83.121581824898,42.3686568902841],[-83.1220500236967,42.3684815661526],[-83.1224893235387,42.3683161356867],[-83.1231213367098,42.3680776127911],[-83.1233718883304,42.3679831143915],[-83.1236875261742,42.367863936959],[-83.1243325965292,42.3676242303998],[-83.1244947140913,42.3675639879037],[-83.1248906249593,42.3674156492202],[-83.1258242011264,42.3670554367696],[-83.126559272951,42.3667772812837],[-83.1269044166653,42.3666358318708],[-83.1278009925454,42.3663051878483],[-83.1286965771764,42.365966796161],[-83.1304802552672,42.3653049468947],[-83.1305887315765,42.3652597335172],[-83.1306651290792,42.3652068334765],[-83.1308723854125,42.3649246295588],[-83.1309559760774,42.3648094662222],[-83.1311555899432,42.3645265501497],[-83.1312868568565,42.3643529387186],[-83.1314830847929,42.3641141054071],[-83.1386607585381,42.3670530609979],[-83.1390383901363,42.3672060816611],[-83.1401087772642,42.3676928761306],[-83.1433342918041,42.369159682293],[-83.1443160851512,42.3696061220155],[-83.1448291525692,42.3707805996564],[-83.1448468770657,42.3708211729287],[-83.1448665931799,42.3708287917209],[-83.1490691198975,42.3724526584095],[-83.1520019617726,42.373651346254],[-83.1588184992,42.3764195081393],[-83.16837745436,42.3803419711867],[-83.1833693191914,42.3799616745774],[-83.1829356880823,42.3814887174568],[-83.1827499536455,42.3821427627268],[-83.1829905694446,42.3867918834165],[-83.1829910166503,42.3868005155629],[-83.1830418605064,42.3877828482428],[-83.1830031283255,42.3879457265913],[-83.1830030636665,42.3879459978335],[-83.1828340275682,42.3886568173474],[-83.1825262283854,42.3899511130242],[-83.1815836687167,42.3910092232107],[-83.1808906798832,42.3914256714076],[-83.1808825681435,42.3914305460339],[-83.1794505730442,42.3922910643189],[-83.1787042603818,42.3926311368176],[-83.1787039940078,42.3926312195679],[-83.1787029113723,42.3926315575932],[-83.1775874054651,42.3929794052368],[-83.1749522457572,42.3933290453691],[-83.1689640008877,42.3933761382622],[-83.1689722224787,42.3935446476697],[-83.1689967046327,42.3936126842387],[-83.1690447576478,42.3950289443166],[-83.1635982719964,42.3951484633889],[-83.1633743223779,42.395151192594],[-83.1625265588227,42.3951716739693],[-83.1617935313775,42.3951956271102],[-83.1614637342914,42.3952018522294],[-83.1609310100492,42.3952115776543],[-83.1603986574982,42.3952209785896],[-83.1598592604555,42.3952301950355],[-83.159341990616,42.3952384736292],[-83.158816850361,42.3952454974671],[-83.1583017343354,42.3952491104118],[-83.157274773088,42.3952569079574],[-83.1562475407502,42.3952661339531],[-83.155221151253,42.3952757198075],[-83.154189174841,42.3952852367489],[-83.153163150808,42.395294717876],[-83.1521359149519,42.395304086741],[-83.1511095312147,42.3953132753611],[-83.1500809721857,42.3953218011369],[-83.148974430551,42.3953302018758],[-83.1484232286281,42.3953341952978],[-83.1478729771183,42.395339276712],[-83.1473060440743,42.3953463202005],[-83.1467525153709,42.3953513781128],[-83.1461914651609,42.3953558014667],[-83.1456360022633,42.3953601794725],[-83.1450810263462,42.3953645572993],[-83.144452669093,42.3953695113776],[-83.1438205227089,42.3953756538195],[-83.1432598079314,42.3953815195389],[-83.142685729167,42.3953874743772],[-83.1421400808378,42.3953931331766],[-83.1415709829682,42.395399046945],[-83.1410175582606,42.395404795653],[-83.140400297693,42.3954193912113],[-83.1400180092741,42.3954284844742],[-83.1398632882886,42.3946581207715],[-83.1395037897203,42.3864969227665],[-83.1394694789733,42.3865072675526],[-83.1393400908615,42.3865462788206],[-83.1386758006165,42.386746559422],[-83.1358356691948,42.3878499362015],[-83.1353601922304,42.3880346457417],[-83.1308609331246,42.3897331173919],[-83.11319230122,42.396289415045],[-83.1107864133708,42.3976454088272],[-83.1107115889988,42.3976875798559],[-83.1093657912183,42.3984460412768],[-83.1090625878761,42.3986169147778],[-83.1090624686875,42.3986169818882],[-83.1090529962968,42.398602905568],[-83.1089065223311,42.3983852292219],[-83.1086410657959,42.3979907270458],[-83.107125801216,42.3957387439193],[-83.1070362671316,42.3955823930302],[-83.105764321468,42.3933611233927],[-83.1052402430541,42.3926202957714],[-83.1046493290842,42.3917849664143],[-83.1040980814056,42.3910056868755],[-83.1038121181275,42.3906026925345],[-83.1037542140272,42.3905210903644],[-83.1029967165198,42.3894535552766],[-83.1021240471915,42.3882565149929],[-83.1025959296584,42.3880839228895]]]},"properties":{"OBJECTID_1":8,"NAME":"Central","TYPE":"High School","School_ID":617,"districtCode":82015,"meapCode":617,"schoolCode":512,"schoolName":"Central Academy and High School","address":"2425 Tuxedo Street","zip":"48206-1222","telephone":"(313) 252-3000","fax":"(313) 852-1445","config":"9 - 12, ESE","status":"Active","EC":0,"EL":0,"Mid":0,"High":1,"Type_1":"Secondary","shortName":"Central","schoolWebsite":"https://www.detroitk12.org/central","lat":42.3847,"lon":-83.1126,"url":"https://central.detroitk12.org","ObjectID":82,"Principal":"LaToyia Webb"}},{"type":"Feature","id":9,"geometry":{"type":"Polygon","coordinates":[[[-83.1250029331717,42.3369365876783],[-83.1207684342551,42.331114313595],[-83.1192894046339,42.331111797593],[-83.118830756059,42.3311163156371],[-83.1168041108114,42.3311362309005],[-83.116510107924,42.3311391208414],[-83.1156579277527,42.3311459162179],[-83.115520555679,42.3311465237193],[-83.1153956127983,42.3311467972196],[-83.1147064322451,42.331148314819],[-83.1139905096068,42.331152568223],[-83.1131938473272,42.3311574153162],[-83.1130288417049,42.331157408379],[-83.1128158604458,42.3311595893327],[-83.1117602486869,42.3311638127234],[-83.1114657609832,42.331168514742],[-83.1106310078873,42.3311741334808],[-83.1095064302247,42.3311818475057],[-83.1089421928832,42.3311860388991],[-83.108155729206,42.3311919946353],[-83.1073857779064,42.3311974979128],[-83.1058178131032,42.331189418079],[-83.1044810490786,42.3312005641426],[-83.1029306020423,42.3311359079157],[-83.1023857752899,42.3311366705055],[-83.0991076870856,42.3312003101461],[-83.0985273939535,42.3312626882455],[-83.0967879520878,42.3312696339922],[-83.095847363866,42.3313139002238],[-83.0954219427779,42.3313397201602],[-83.0950835712943,42.3313661566633],[-83.0944262873538,42.3314049564124],[-83.094273260791,42.331410282446],[-83.0941322261916,42.331413634036],[-83.0938060875606,42.3314213432737],[-83.0932970346996,42.3314212264262],[-83.0931482906877,42.3314211822041],[-83.0929965123028,42.3314214062586],[-83.0921024876896,42.3314264277633],[-83.0919809012584,42.3314272426282],[-83.0918727457752,42.3314280020755],[-83.0906499935505,42.3314362549238],[-83.0904990607468,42.3314373162169],[-83.0903606373949,42.331438284823],[-83.0892258323104,42.3314458611635],[-83.0890405074725,42.3314469258723],[-83.088208426973,42.331451959615],[-83.0876768447682,42.3314524902104],[-83.0873123523024,42.3314477416068],[-83.0868496906962,42.3314545036609],[-83.0857918925276,42.331457847707],[-83.0853905458027,42.3305665196367],[-83.0853822427051,42.3305441184445],[-83.0854082137053,42.3305126455929],[-83.0859167236506,42.3298964000508],[-83.0859309312562,42.3285982620038],[-83.0856415423473,42.3275821387106],[-83.0811721575286,42.3275875687409],[-83.0792827561319,42.3272431422048],[-83.0768774117023,42.3228118200537],[-83.0765893600962,42.3229035596953],[-83.0734077812732,42.3239167641028],[-83.0706370049227,42.3246954351963],[-83.068548274322,42.3254878359422],[-83.0636281573919,42.3168557476518],[-83.0735193770512,42.3108874914396],[-83.078177114553,42.3085712396428],[-83.0800111092555,42.3071698068682],[-83.0838624362624,42.3032550573519],[-83.0883982267714,42.2986381737014],[-83.0912222353491,42.2958076674144],[-83.0976950388964,42.2896735136944],[-83.0999685011956,42.2866962457205],[-83.1032728005219,42.2879395062298],[-83.1078897540506,42.2889619765704],[-83.1093620846948,42.2892354821522],[-83.1111350544228,42.2894724688451],[-83.1120651368401,42.2895858404389],[-83.1136479522281,42.2899964956851],[-83.1146965097446,42.2901754448246],[-83.1158371791953,42.2902286264402],[-83.1166156955986,42.2901844641073],[-83.1173674561167,42.2900195080086],[-83.1179821471128,42.2897869908411],[-83.1181990018626,42.2897253885815],[-83.1193181271148,42.2890541776284],[-83.1195271326085,42.2887524006327],[-83.1196828895638,42.2883832589525],[-83.1198492999239,42.2880124316392],[-83.1199458582301,42.2875520687924],[-83.1198025656988,42.2864537334203],[-83.1194958128557,42.2856026158605],[-83.1193744710077,42.2851144274132],[-83.1193355235859,42.2847598914934],[-83.1193588318708,42.2843994585891],[-83.1190607498719,42.2832811572408],[-83.1189285119669,42.282973129981],[-83.1178302628762,42.2811613696933],[-83.1177100576533,42.280410106107],[-83.1176947614152,42.2800232852622],[-83.1177355204368,42.2796214529046],[-83.1178426561249,42.2794597515927],[-83.1180493218301,42.2793005915816],[-83.1183646663524,42.2791853174849],[-83.118843230046,42.2791317631983],[-83.119428196715,42.2791713646505],[-83.1219625658563,42.2794333656855],[-83.1287818700928,42.2807889918524],[-83.1302717381899,42.2810985765093],[-83.1315619002477,42.2814065556924],[-83.1342812013198,42.2822241206334],[-83.1356928537503,42.2827503351182],[-83.1357784383989,42.2825930212293],[-83.1358391467722,42.2826092841255],[-83.1358584915303,42.2825766523173],[-83.1359151131371,42.2825309814181],[-83.1359493844281,42.282518602994],[-83.1359695172482,42.2824904060526],[-83.136059250413,42.2824360068517],[-83.1361919379173,42.2823959479371],[-83.1363539111175,42.2823886352172],[-83.1365633477374,42.2824171353457],[-83.1373357211349,42.2827170150534],[-83.1375219149536,42.2827892284261],[-83.1403591433852,42.279464353311],[-83.1435251681187,42.2757330824758],[-83.1497304299357,42.2684322569111],[-83.1549006061825,42.2621478670915],[-83.1589256677857,42.2573656764544],[-83.16085094622,42.2551895657748],[-83.1610433152047,42.2549585541502],[-83.1612609658953,42.2551285127994],[-83.161486191269,42.2553342141577],[-83.1617115078458,42.255579356635],[-83.1627275259222,42.256889683686],[-83.163052701231,42.2572432095718],[-83.1632600709101,42.2574264798412],[-83.1634853685065,42.2575976947784],[-83.1644682817083,42.2582251626635],[-83.1652867907828,42.2587488634013],[-83.1655911615823,42.2589687237398],[-83.1657609822652,42.2590945968031],[-83.1663918950546,42.2596364709252],[-83.1665327291831,42.2598138972341],[-83.1666353109806,42.2599887582989],[-83.1667087298461,42.2601673622393],[-83.1667516745584,42.2603361002789],[-83.1667705750655,42.2605071030245],[-83.1667665477533,42.2606917298952],[-83.1667697438192,42.2610746995063],[-83.166784508098,42.2612844660661],[-83.1668265371004,42.2615640311957],[-83.1668918089616,42.2618326775511],[-83.1669145009854,42.2618755961413],[-83.1669962896272,42.261971902999],[-83.1672555027207,42.2622786164409],[-83.1677881635933,42.263262614176],[-83.1680218453938,42.2636938503137],[-83.1681013504205,42.2638147118605],[-83.1681796455521,42.2639101714284],[-83.1682523946079,42.263985042563],[-83.1683320077939,42.264056023618],[-83.1684181301114,42.2641226633331],[-83.1685104013153,42.2641845941287],[-83.1686091971568,42.2642413742699],[-83.1687163292706,42.2642932867011],[-83.1688310600224,42.2643408701384],[-83.1689436446726,42.2643803263921],[-83.1690674505087,42.2644161194733],[-83.1692259300336,42.2644516493784],[-83.1693720422292,42.2644746212707],[-83.1698990904293,42.2645745995084],[-83.1697686823875,42.2647550124421],[-83.169683609528,42.2648313240396],[-83.1686545594019,42.2659718770659],[-83.1681497373146,42.2665941462153],[-83.1673441245344,42.2675871511176],[-83.1621266285646,42.2737158168174],[-83.1582319382168,42.2788420896468],[-83.1597228060519,42.2801597594745],[-83.1614638073785,42.2818551018658],[-83.1618684959864,42.2823296770534],[-83.1621759794945,42.2827898004723],[-83.162442183691,42.2833348422977],[-83.1629389456845,42.2844504766654],[-83.1631720301578,42.2849214240906],[-83.1637987485507,42.286052930058],[-83.1641568207206,42.2866774551279],[-83.1645549719283,42.2870784782787],[-83.1649727525613,42.2874496494656],[-83.165249211922,42.2877010872303],[-83.1664274739348,42.2886961234489],[-83.1666473611203,42.2889037600154],[-83.1667570622208,42.2890261141036],[-83.1670137573818,42.2894572348556],[-83.1670659261735,42.2895695375405],[-83.1660877334105,42.2898149295755],[-83.1652648357033,42.2900537265513],[-83.1646852241012,42.290309578717],[-83.1642521588032,42.2905784395446],[-83.1630281888541,42.2912544145052],[-83.1626568860018,42.2914231372894],[-83.1622291896598,42.2915883507211],[-83.1619789399503,42.291742584991],[-83.1617246558483,42.2918450269115],[-83.1614738606452,42.2918710749564],[-83.1612490619288,42.2918543179116],[-83.1609492557925,42.2918856386708],[-83.1604605904049,42.2919135460763],[-83.1586564173803,42.2919485340118],[-83.1583207270475,42.2920147490927],[-83.1580900746401,42.2921525373416],[-83.1578376738016,42.2924276295437],[-83.1577924226078,42.2926711391167],[-83.1577789673696,42.2930350032499],[-83.1578244062557,42.2932256985065],[-83.1579151640059,42.2934405084592],[-83.1580165329681,42.2935924041892],[-83.1581256299912,42.293744493837],[-83.1582190110991,42.2939019307738],[-83.1582476853975,42.2941209219875],[-83.1582387718476,42.294315989963],[-83.1581661969159,42.2945496616713],[-83.1580008904203,42.2947809988844],[-83.1577615954079,42.2949546073902],[-83.1574661932481,42.2951043969801],[-83.1571527671183,42.2952248848805],[-83.1564901258435,42.2953345514489],[-83.1560709824677,42.2953641924069],[-83.1556045088533,42.2954663515498],[-83.1553500403601,42.2955336064597],[-83.1547991133229,42.2955737416901],[-83.1544696147472,42.2955457851003],[-83.1541121123075,42.295551501618],[-83.1536177349169,42.2956569053975],[-83.1514809761089,42.2963442968677],[-83.151164485241,42.2964138392027],[-83.150936993174,42.296411686844],[-83.1506863277501,42.2962819406274],[-83.1502867931979,42.296022805561],[-83.1496299354805,42.2954399859198],[-83.1493856825589,42.2951207490506],[-83.1492242890153,42.2942656856168],[-83.1489396444336,42.2935989791802],[-83.148500206847,42.2931836540449],[-83.1480149172337,42.2928309922824],[-83.1473314054958,42.2927392507116],[-83.1469393688142,42.292779121091],[-83.1465722592678,42.2929498429482],[-83.1458853996298,42.2932292365679],[-83.1452635657707,42.2934579015866],[-83.1448928875346,42.29355804931],[-83.144200122397,42.2937452141872],[-83.1436511846756,42.2939538023677],[-83.1437212711516,42.2942050957933],[-83.1436685022879,42.2943893680404],[-83.1435054189129,42.2944854635653],[-83.1430964770914,42.2945792916017],[-83.1429362402147,42.2945540883707],[-83.1426283580596,42.2944046498118],[-83.1423092652032,42.2947014099126],[-83.1418392549784,42.2951886161108],[-83.1415548769073,42.2954554140313],[-83.1412674877965,42.2960048252348],[-83.140921330142,42.2965079281619],[-83.1406912935774,42.2970345216316],[-83.1405199935131,42.2977466794894],[-83.1403944803851,42.2990526446613],[-83.1407610905337,42.3003388016005],[-83.1416432493306,42.3021698655777],[-83.141920355219,42.3036837761925],[-83.1419443965884,42.3040709431582],[-83.142230811045,42.3047113365999],[-83.1423156144092,42.3049414801453],[-83.1424292029098,42.3052497389882],[-83.142485191356,42.3055003496884],[-83.1424693266153,42.3058454912594],[-83.1423853415786,42.3059847252651],[-83.1422250634857,42.3060958465048],[-83.1413480153805,42.306455825964],[-83.1411711669715,42.3064670519269],[-83.1409574109719,42.3065139907737],[-83.1406749562139,42.3066743698406],[-83.1405754313456,42.3068446205578],[-83.1406734822237,42.3071664721349],[-83.1407457600656,42.3074353162898],[-83.1407142819212,42.3076596445436],[-83.1405980197687,42.3078870630465],[-83.1404146748475,42.3080394828486],[-83.1400330957415,42.3082078196002],[-83.1398657634624,42.3083187604778],[-83.1397662350012,42.3084890095976],[-83.1397089779249,42.3086603299933],[-83.1397289792944,42.3088388456074],[-83.139799018992,42.3090029217645],[-83.140475860601,42.3100828861585],[-83.1405254892642,42.3102307376033],[-83.1405800699125,42.3105776642941],[-83.1406790067588,42.3108066805623],[-83.1407719522613,42.311006603346],[-83.1417583620221,42.3123997118011],[-83.1465489146309,42.3189707495298],[-83.153200521074,42.3280853482552],[-83.1565423958878,42.3272378913804],[-83.1565494330523,42.3276667525979],[-83.1566222696083,42.327950520946],[-83.1567284646235,42.3299228264912],[-83.1569726451268,42.3369587791144],[-83.1558135836233,42.3369814536323],[-83.1544151357599,42.3372287184669],[-83.1536711598673,42.3373749255209],[-83.1534164856697,42.3374581144326],[-83.1530296022628,42.3375844905459],[-83.1518787955165,42.3381805961095],[-83.1511769437936,42.3386838338719],[-83.1508880410064,42.3388588748262],[-83.1500123261662,42.3398352552947],[-83.1495021529373,42.3407513996208],[-83.1487868390366,42.3438416707122],[-83.1485753957289,42.3443318780781],[-83.1399560440495,42.3445608965109],[-83.1349150205822,42.3445633268674],[-83.1274392287222,42.3441208233408],[-83.1259014137287,42.3418921392543],[-83.1223287353074,42.3379709975509],[-83.1223431851705,42.3379653691688],[-83.1246366311381,42.3370782725376],[-83.1250029331717,42.3369365876783]]]},"properties":{"OBJECTID_1":9,"NAME":"Western","TYPE":"High School","School_ID":4477,"districtCode":82015,"meapCode":4477,"schoolCode":584,"schoolName":"Western International High School","address":"1500 Scotten Street","zip":"48209-2139","telephone":"(313) 849-4758","fax":"(313) 849-4695","config":"9 - 12, ESE","status":"Active","EC":0,"EL":0,"Mid":0,"High":1,"Type_1":"Secondary","shortName":"Western","schoolWebsite":"https://www.detroitk12.org/western","lat":42.319,"lon":-83.0923,"url":"https://western.detroitk12.org","ObjectID":96,"Principal":""}},{"type":"Feature","id":10,"geometry":{"type":"Polygon","coordinates":[[[-83.0064401658732,42.337625686772],[-83.0060837285144,42.3316920191907],[-83.0140668974074,42.3313191481364],[-83.0190153075609,42.3306143946486],[-83.0195313972436,42.3304916458089],[-83.0263971812093,42.3288663604025],[-83.0391440849359,42.324769130343],[-83.040571252112,42.324091155651],[-83.0409974191253,42.3239695461853],[-83.0415590960811,42.324707405137],[-83.0429862364173,42.3265821054964],[-83.0446575388942,42.3287773742599],[-83.0469433608455,42.3317795278593],[-83.0478161444559,42.3329257367237],[-83.0463313399679,42.3335693625837],[-83.0460710711654,42.3339023584012],[-83.045213792619,42.3351085918287],[-83.0450101696032,42.3353540402366],[-83.0446437783418,42.3358250898223],[-83.044283739951,42.3363106260466],[-83.0438795054857,42.3368369746861],[-83.0432808691872,42.3376202056842],[-83.0427680693478,42.3382972596596],[-83.042602257085,42.3385161950027],[-83.0418413689254,42.3394815381855],[-83.0416308709009,42.3397945401124],[-83.0413353729746,42.3401592471327],[-83.0410840858081,42.3404760000195],[-83.0409980831781,42.3405947360974],[-83.0406561843592,42.3410366621972],[-83.0405849234091,42.3411229097379],[-83.0399274727379,42.3419794367163],[-83.0396474883785,42.3423448539853],[-83.0386990833625,42.3435826519829],[-83.0376456559509,42.3449525099791],[-83.0374998128916,42.345133831557],[-83.0373587336584,42.3453257894582],[-83.0366386888394,42.3462551240623],[-83.0365934109458,42.3463190410625],[-83.036293814203,42.3467077312094],[-83.0362178098133,42.3468016442491],[-83.0360810096196,42.3469748790915],[-83.0359202432742,42.3471773229456],[-83.0358405648098,42.3472748771367],[-83.0348491847977,42.3485677463608],[-83.0343004427502,42.3492800624571],[-83.0335044957929,42.3503393282723],[-83.0332819918446,42.3506418486732],[-83.0330055323266,42.3510212445808],[-83.0326365982299,42.3515820019765],[-83.0324224980435,42.3519074170271],[-83.0320376675339,42.3524934718056],[-83.0317917816689,42.3528564750259],[-83.0308978344935,42.3542351347256],[-83.0308063088193,42.3543753714219],[-83.0306948744591,42.3545459291144],[-83.0301893170918,42.3553193575167],[-83.0301391298834,42.3554086310458],[-83.0295908557124,42.3562307271113],[-83.0289947209827,42.3571402303027],[-83.0286014996117,42.3577401262099],[-83.0284811574665,42.3579235661675],[-83.0277532240242,42.3590332912027],[-83.0275123997233,42.3594048407856],[-83.0272269738362,42.3598418654568],[-83.0266816751163,42.3606692976553],[-83.0264891297197,42.3609630794247],[-83.0258642632335,42.3619181038621],[-83.0256548698282,42.3622375720945],[-83.025258469419,42.3628418360872],[-83.024481070477,42.3640284885235],[-83.0241275305114,42.3645685997828],[-83.0239535289967,42.3648345040124],[-83.0234931400124,42.3641502416992],[-83.0231015817012,42.363557906426],[-83.0230352642253,42.3634575360743],[-83.022561849472,42.3627423178996],[-83.0223570082762,42.3624330322741],[-83.0220840134087,42.3620186714224],[-83.0216038713855,42.3612898631275],[-83.0213441367053,42.3608972673584],[-83.020885706011,42.360204009239],[-83.0204584418971,42.3595579401521],[-83.0201738004519,42.3591274089423],[-83.0197205866364,42.3584411408414],[-83.0192604471814,42.3577443438219],[-83.0188060416802,42.3570579676292],[-83.0183496046379,42.3563649923546],[-83.0178960220134,42.3556751104358],[-83.017464906873,42.3550246615621],[-83.0172398206339,42.3546827502033],[-83.0171223988234,42.3545043835741],[-83.0160926444825,42.3529528807256],[-83.0158328947633,42.3525585605106],[-83.0155767548272,42.3521658133319],[-83.0145074041698,42.3505516052649],[-83.0126657135723,42.3476972637965],[-83.0120978558218,42.3469242830231],[-83.0119873470751,42.3467436620581],[-83.011541100143,42.3460672864149],[-83.0109650800344,42.3451982613411],[-83.0105512333059,42.3445420857757],[-83.0104496478517,42.3444018984391],[-83.0101502520095,42.3439413153335],[-83.0100429540161,42.3436581439423],[-83.0064401658732,42.337625686772]]]},"properties":{"OBJECTID_1":10,"NAME":"King","TYPE":"High School","School_ID":1043,"districtCode":82015,"meapCode":1043,"schoolCode":529,"schoolName":"Martin Luther King Jr. Senior High School","address":"3200 E. Lafayette Street","zip":"48207-3812","telephone":"(313) 494-7373","fax":"(313) 262-9140","config":"9 - 12, ESE","status":"Active","EC":0,"EL":0,"Mid":0,"High":1,"Type_1":"Secondary","shortName":"King","schoolWebsite":"https://www.detroitk12.org/king","lat":42.3438,"lon":-83.0144,"url":"https://king.detroitk12.org","ObjectID":86,"Principal":"Damian Perry"}},{"type":"Feature","id":11,"geometry":{"type":"Polygon","coordinates":[[[-83.0688412053704,42.3925827268287],[-83.0666229040272,42.3897046501208],[-83.0624785780897,42.3912412461036],[-83.0619281561087,42.3904081229139],[-83.0608499342977,42.3889448351125],[-83.0577306482803,42.3842462722385],[-83.0564373914802,42.3823160016909],[-83.0560843693182,42.3818194676217],[-83.0558229347156,42.381451748156],[-83.0558051468916,42.3813964335327],[-83.0558043014194,42.3813604751086],[-83.0549994718388,42.3800649057791],[-83.0547386957016,42.3795935933446],[-83.0413189290949,42.384620123399],[-83.0436572258605,42.3896063721248],[-83.0435331936798,42.3895003322787],[-83.042948298273,42.3890434461399],[-83.042862256771,42.3889700072773],[-83.0427266277594,42.3888646984276],[-83.041967134353,42.3882599874807],[-83.0411852714172,42.3876373270875],[-83.0401553509868,42.3868170957676],[-83.0396465548082,42.38641190801],[-83.0395117239475,42.3863028201004],[-83.0391581253781,42.3859822109795],[-83.0386992849033,42.3854820614336],[-83.0380678418401,42.3845687752911],[-83.037516022162,42.3837898578559],[-83.037001426676,42.3830723328674],[-83.0369518059164,42.3830031470374],[-83.0356244319737,42.3811523297359],[-83.0348175852154,42.3800273089488],[-83.0347580288091,42.3799555681544],[-83.0346672868631,42.3798655433769],[-83.0344677397758,42.3797124740064],[-83.0342989879325,42.3795903795164],[-83.0338668798345,42.3792778188307],[-83.0337479981641,42.3791918740895],[-83.0334174684445,42.3789511869833],[-83.0331705438408,42.379084548017],[-83.0328850860929,42.379256962238],[-83.032625268737,42.3794574969343],[-83.0324502957855,42.3796553813712],[-83.032363470349,42.3797857307678],[-83.0318681181341,42.3805796520082],[-83.0318477050052,42.3806425307101],[-83.0318485387946,42.3806944040639],[-83.0318592609863,42.3807325273614],[-83.031879647054,42.380778076478],[-83.0311234720523,42.3816763462686],[-83.029753079167,42.3832212766454],[-83.0289004662544,42.3838059170204],[-83.0273415365221,42.3844144349947],[-83.0198409432298,42.3859382469611],[-83.0063654825616,42.3913949178581],[-83.0016001040228,42.3918098489183],[-82.9965538564385,42.3919591765703],[-82.9940562758163,42.3924318271379],[-82.9921976640158,42.3932234243825],[-82.9904639532647,42.394208054333],[-82.9889479943579,42.3954016601097],[-82.9882064963245,42.3959854609952],[-82.9863646604142,42.3950869032409],[-82.9858145531464,42.3946889853948],[-82.9851230535303,42.3943079196477],[-82.9849141272921,42.3941426466191],[-82.9847795914715,42.3940357510475],[-82.9842553641323,42.3935945601174],[-82.9838799116253,42.3933030266188],[-82.9837713393427,42.3932306617635],[-82.9836185500089,42.3931419110091],[-82.9832072142081,42.3929362368985],[-82.9826125156066,42.3926434301035],[-82.9823472149642,42.3925013523325],[-82.9821305967003,42.3923550952111],[-82.9813973996125,42.3918787982306],[-82.9808310200587,42.391510860604],[-82.9806271898444,42.3913784888406],[-82.9802723031107,42.3911480163303],[-82.9794611875504,42.3906210918196],[-82.9791530996379,42.3904209470428],[-82.9788495225923,42.3902475088976],[-82.9787680544396,42.3902131078019],[-82.9784922446331,42.3900965542618],[-82.9771519064349,42.3896351545188],[-82.9767717393425,42.3895042853781],[-82.9760199914628,42.3892860953495],[-82.9758397282876,42.3893306843591],[-82.9735520927317,42.388397658966],[-82.9732813389596,42.388300243453],[-82.9724055961116,42.3879845230424],[-82.9714485466547,42.387611863725],[-82.9712900611536,42.3875438166877],[-82.9712097835789,42.3874957284253],[-82.9711504445849,42.3874522185254],[-82.9709844283497,42.3872913353207],[-82.9707543937804,42.3870684112269],[-82.9691946020373,42.3855599331378],[-82.9690909937277,42.3854462856855],[-82.9690074954528,42.3853348665718],[-82.9686256778002,42.3847527273421],[-82.9685560984754,42.3846612281417],[-82.9685342637764,42.384632514148],[-82.9685002063255,42.384587725733],[-82.96845979564,42.3845345842224],[-82.9683903405967,42.3844568043405],[-82.9683636984207,42.3844269695199],[-82.9682032525561,42.3842431106992],[-82.9681421329554,42.3841630309895],[-82.968056946694,42.3840404251358],[-82.9678340516369,42.383694709661],[-82.968310068745,42.3836713989181],[-82.9685969641213,42.3836705194429],[-82.9688672485375,42.3836629517495],[-82.9691369494899,42.3836488932109],[-82.9694060648796,42.3836284338484],[-82.9697630041335,42.3835911359096],[-82.9701175254971,42.3835424618314],[-82.970468898244,42.3834824926963],[-82.9706702235171,42.3834421277406],[-82.9707299809059,42.3834301466384],[-82.9710038231666,42.3833503139358],[-82.971233211451,42.3832759671167],[-82.9714802008529,42.3831868144042],[-82.9715333159607,42.3831676424627],[-82.9717261105494,42.3830894234699],[-82.9720658169808,42.382926298171],[-82.9723149983375,42.3827976268856],[-82.9732046662629,42.3823041907887],[-82.9688651392402,42.375821406172],[-82.9643178192725,42.3690105290105],[-82.9580115489442,42.3597472116593],[-82.9529570214057,42.3535415652462],[-82.9472259188908,42.3465045128017],[-82.9535492853121,42.3431268848887],[-82.9598375397338,42.3397672983631],[-82.9891884324769,42.3324797391177],[-83.0060837285144,42.3316920191907],[-83.0064401658732,42.337625686772],[-83.0100429540161,42.3436581439423],[-83.0101502520095,42.3439413153335],[-83.0104496478517,42.3444018984391],[-83.0105512333059,42.3445420857757],[-83.0109650800344,42.3451982613411],[-83.011541100143,42.3460672864149],[-83.0119873470751,42.3467436620581],[-83.0120978558218,42.3469242830231],[-83.0126657135723,42.3476972637965],[-83.0145074041698,42.3505516052649],[-83.0155767548272,42.3521658133319],[-83.0158328947633,42.3525585605106],[-83.0160926444825,42.3529528807256],[-83.0171223988234,42.3545043835741],[-83.0172398206339,42.3546827502033],[-83.017464906873,42.3550246615621],[-83.0178960220134,42.3556751104358],[-83.0183496046379,42.3563649923546],[-83.0188060416802,42.3570579676292],[-83.0192604471814,42.3577443438219],[-83.0197205866364,42.3584411408414],[-83.0201738004519,42.3591274089423],[-83.0204584418971,42.3595579401521],[-83.020885706011,42.360204009239],[-83.0213441367053,42.3608972673584],[-83.0216038713855,42.3612898631275],[-83.0220840134087,42.3620186714224],[-83.0223570082762,42.3624330322741],[-83.022561849472,42.3627423178996],[-83.0230352642253,42.3634575360743],[-83.0231015817012,42.363557906426],[-83.0234931400124,42.3641502416992],[-83.0239535289967,42.3648345040124],[-83.0241275305114,42.3645685997828],[-83.024481070477,42.3640284885235],[-83.025258469419,42.3628418360872],[-83.0256548698282,42.3622375720945],[-83.0258642632335,42.3619181038621],[-83.0264891297197,42.3609630794247],[-83.0266816751163,42.3606692976553],[-83.0272269738362,42.3598418654568],[-83.0275123997233,42.3594048407856],[-83.0277532240242,42.3590332912027],[-83.0284811574665,42.3579235661675],[-83.0286014996117,42.3577401262099],[-83.0289947209827,42.3571402303027],[-83.0295908557124,42.3562307271113],[-83.0301391298834,42.3554086310458],[-83.0301893170918,42.3553193575167],[-83.0306948744591,42.3545459291144],[-83.0308063088193,42.3543753714219],[-83.0308978344935,42.3542351347256],[-83.0317917816689,42.3528564750259],[-83.0320376675339,42.3524934718056],[-83.0324224980435,42.3519074170271],[-83.0326365982299,42.3515820019765],[-83.0330055323266,42.3510212445808],[-83.0332819918446,42.3506418486732],[-83.0335044957929,42.3503393282723],[-83.0343004427502,42.3492800624571],[-83.0348491847977,42.3485677463608],[-83.0358405648098,42.3472748771367],[-83.0359202432742,42.3471773229456],[-83.0360810096196,42.3469748790915],[-83.0362178098133,42.3468016442491],[-83.036293814203,42.3467077312094],[-83.0365934109458,42.3463190410625],[-83.0366386888394,42.3462551240623],[-83.0373587336584,42.3453257894582],[-83.0374998128916,42.345133831557],[-83.0376456559509,42.3449525099791],[-83.0386990833625,42.3435826519829],[-83.0396474883785,42.3423448539853],[-83.0399274727379,42.3419794367163],[-83.0405849234091,42.3411229097379],[-83.0406561843592,42.3410366621972],[-83.0409980831781,42.3405947360974],[-83.0410840858081,42.3404760000195],[-83.0413353729746,42.3401592471327],[-83.0416308709009,42.3397945401124],[-83.0418413689254,42.3394815381855],[-83.042602257085,42.3385161950027],[-83.0427680693478,42.3382972596596],[-83.0432808691872,42.3376202056842],[-83.0438795054857,42.3368369746861],[-83.044283739951,42.3363106260466],[-83.0446437783418,42.3358250898223],[-83.0450101696032,42.3353540402366],[-83.045213792619,42.3351085918287],[-83.0460710711654,42.3339023584012],[-83.0463313399679,42.3335693625837],[-83.0478161444559,42.3329257367237],[-83.0481260130319,42.3333326681095],[-83.0495342707266,42.3351819730493],[-83.0508144856448,42.336863024903],[-83.0525957074945,42.3395511357546],[-83.0527057716974,42.3397149029362],[-83.0542457379227,42.3420061494902],[-83.0611569301295,42.352286670812],[-83.0613455057662,42.3525386902495],[-83.0629842171764,42.3547286151951],[-83.0641265740204,42.3565250829868],[-83.064378364297,42.3569085314083],[-83.0681118017442,42.3625935071995],[-83.068658329806,42.3634256182331],[-83.069072368628,42.3639866981014],[-83.0699259400061,42.3651433649579],[-83.073327250836,42.3702657319536],[-83.0805670659827,42.3810836620245],[-83.0878037139207,42.3918343090814],[-83.088656218081,42.3931004980962],[-83.0738326358507,42.3987189968117],[-83.0737044691475,42.3985625310971],[-83.0731318713252,42.3978634973698],[-83.0727926689076,42.397449385623],[-83.0727418530288,42.397387347118],[-83.0712536465779,42.3955704080566],[-83.0688412053704,42.3925827268287]]]},"properties":{"OBJECTID_1":11,"NAME":"Southeastern","TYPE":"High School","School_ID":3540,"districtCode":82015,"meapCode":3540,"schoolCode":576,"schoolName":"Southeastern High School","address":"3030 Fairview Street","zip":"48214-2215","telephone":"(313) 866-4500","fax":"(313) 449-4671","config":"9 - 12, ESE","status":"Active","EC":0,"EL":0,"Mid":0,"High":1,"Type_1":"Secondary","shortName":"Southeastern","schoolWebsite":"https://www.detroitk12.org/southeastern","lat":42.3734,"lon":-82.9788,"url":"https://southeastern.detroitk12.org","ObjectID":94,"Principal":""}},{"type":"Feature","id":12,"geometry":{"type":"Polygon","coordinates":[[[-83.0641265740204,42.3565250829868],[-83.0629842171764,42.3547286151951],[-83.0613455057662,42.3525386902495],[-83.0611569301295,42.352286670812],[-83.0542457379227,42.3420061494902],[-83.0527057716974,42.3397149029362],[-83.0525957074945,42.3395511357546],[-83.0508144856448,42.336863024903],[-83.0495342707266,42.3351819730493],[-83.0481260130319,42.3333326681095],[-83.0469433608455,42.3317795278593],[-83.0446575388942,42.3287773742599],[-83.0429862364173,42.3265821054964],[-83.0415590960811,42.324707405137],[-83.0409974191253,42.3239695461853],[-83.0498015115253,42.3214571801962],[-83.0636281573919,42.3168557476518],[-83.068548274322,42.3254878359422],[-83.0706370049227,42.3246954351963],[-83.0734077812732,42.3239167641028],[-83.0765893600962,42.3229035596953],[-83.0768774117023,42.3228118200537],[-83.0792827561319,42.3272431422048],[-83.0811721575286,42.3275875687409],[-83.0856415423473,42.3275821387106],[-83.0859309312562,42.3285982620038],[-83.0859167236506,42.3298964000508],[-83.0854082137053,42.3305126455929],[-83.0853822427051,42.3305441184445],[-83.0853905458027,42.3305665196367],[-83.0857918925276,42.331457847707],[-83.0868496906962,42.3314545036609],[-83.0873123523024,42.3314477416068],[-83.0876768447682,42.3314524902104],[-83.088208426973,42.331451959615],[-83.0890405074725,42.3314469258723],[-83.0892258323104,42.3314458611635],[-83.0903606373949,42.331438284823],[-83.0904990607468,42.3314373162169],[-83.0906499935505,42.3314362549238],[-83.0918727457752,42.3314280020755],[-83.0919809012584,42.3314272426282],[-83.0921024876896,42.3314264277633],[-83.0929965123028,42.3314214062586],[-83.0931482906877,42.3314211822041],[-83.0932970346996,42.3314212264262],[-83.0938060875606,42.3314213432737],[-83.0941322261916,42.331413634036],[-83.094273260791,42.331410282446],[-83.0944262873538,42.3314049564124],[-83.0950835712943,42.3313661566633],[-83.0954219427779,42.3313397201602],[-83.095847363866,42.3313139002238],[-83.0967879520878,42.3312696339922],[-83.0985273939535,42.3312626882455],[-83.0991076870856,42.3312003101461],[-83.1023857752899,42.3311366705055],[-83.1029306020423,42.3311359079157],[-83.1044810490786,42.3312005641426],[-83.1058178131032,42.331189418079],[-83.1073857779064,42.3311974979128],[-83.108155729206,42.3311919946353],[-83.1089421928832,42.3311860388991],[-83.1095064302247,42.3311818475057],[-83.1106310078873,42.3311741334808],[-83.1114657609832,42.331168514742],[-83.1117602486869,42.3311638127234],[-83.1128158604458,42.3311595893327],[-83.1130288417049,42.331157408379],[-83.1131938473272,42.3311574153162],[-83.1139905096068,42.331152568223],[-83.1147064322451,42.331148314819],[-83.1153956127983,42.3311467972196],[-83.115520555679,42.3311465237193],[-83.1156579277527,42.3311459162179],[-83.116510107924,42.3311391208414],[-83.1168041108114,42.3311362309005],[-83.118830756059,42.3311163156371],[-83.1192894046339,42.331111797593],[-83.1207707880551,42.3311123243577],[-83.1250029331717,42.3369365876783],[-83.1246366311381,42.3370782725376],[-83.1223431851705,42.3379653691688],[-83.1223287353074,42.3379709975509],[-83.1259014137287,42.3418921392543],[-83.1274392287222,42.3441208233408],[-83.1349150205822,42.3445633268674],[-83.1399560440495,42.3445608965109],[-83.1485753957289,42.3443318780781],[-83.148422356249,42.3446866756406],[-83.1477046925608,42.3491393983895],[-83.1475370254907,42.3499159932738],[-83.1476585661801,42.3512734832808],[-83.1476667321138,42.3514104006419],[-83.1476755562941,42.3515583719634],[-83.1477278002226,42.3519138436121],[-83.1481957651862,42.3519045585058],[-83.1481958115107,42.3519057304111],[-83.1486394777274,42.363247594677],[-83.1475477180337,42.3632621918542],[-83.1390246755356,42.3633757839844],[-83.1390267075716,42.3639434921574],[-83.1390383901363,42.3672060816611],[-83.1386607585381,42.3670530609979],[-83.1314830847929,42.3641141054071],[-83.1312868568565,42.3643529387186],[-83.1311555899432,42.3645265501497],[-83.1309559760774,42.3648094662222],[-83.1308723854125,42.3649246295588],[-83.1306651290792,42.3652068334765],[-83.1305887315765,42.3652597335172],[-83.1304802552672,42.3653049468947],[-83.1286965771764,42.365966796161],[-83.1278009925454,42.3663051878483],[-83.1269044166653,42.3666358318708],[-83.126559272951,42.3667772812837],[-83.1258242011264,42.3670554367696],[-83.1248906249593,42.3674156492202],[-83.1244947140913,42.3675639879037],[-83.1243325965292,42.3676242303998],[-83.1236875261742,42.367863936959],[-83.1233718883304,42.3679831143915],[-83.1231213367098,42.3680776127911],[-83.1224893235387,42.3683161356867],[-83.1220500236967,42.3684815661526],[-83.121581824898,42.3686568902841],[-83.1211278378737,42.3688262124348],[-83.1202459183525,42.3691567169284],[-83.1199193624381,42.3692808072467],[-83.1193619453613,42.3694916796791],[-83.118209199595,42.3699264154492],[-83.1176226572712,42.3701479440059],[-83.1087895731578,42.3734695867175],[-83.1084987432114,42.3730298520851],[-83.1079907680733,42.3732187245479],[-83.1061833824394,42.3738918718696],[-83.1055772455764,42.3741176235171],[-83.1049646206829,42.3743457309506],[-83.1028812951945,42.3751202229426],[-83.0994506052844,42.37638218131],[-83.0993043701495,42.3764390722937],[-83.0996641562249,42.3767309321919],[-83.0998896250302,42.3769580962414],[-83.1000850952991,42.3772467780157],[-83.100387119868,42.3776832496381],[-83.1006806456151,42.3781143799324],[-83.1009759380323,42.3785480601289],[-83.1012689872083,42.3789788368382],[-83.1015636794478,42.3794126914992],[-83.1018467270951,42.3798279556913],[-83.1019665606242,42.3800033372499],[-83.102310137585,42.3805063445836],[-83.1026491020606,42.3810036251628],[-83.1027679742156,42.381178725],[-83.1034189366938,42.3820894847599],[-83.1039344234114,42.3828918318219],[-83.1042333994092,42.3833290005825],[-83.1045155480153,42.3837411647366],[-83.1047892800804,42.3841375884229],[-83.1049624677106,42.3843887066018],[-83.101028654379,42.3857888182523],[-83.1025959296584,42.3880839228895],[-83.1021240471915,42.3882565149929],[-83.088656218081,42.3931004980962],[-83.0878037139207,42.3918343090814],[-83.0805670659827,42.3810836620245],[-83.073327250836,42.3702657319536],[-83.0699259400061,42.3651433649579],[-83.069072368628,42.3639866981014],[-83.068658329806,42.3634256182331],[-83.0681118017442,42.3625935071995],[-83.064378364297,42.3569085314083],[-83.0641265740204,42.3565250829868]]]},"properties":{"OBJECTID_1":12,"NAME":"Northwestern","TYPE":"High School","School_ID":2778,"districtCode":82015,"meapCode":2778,"schoolCode":562,"schoolName":"Northwestern High School","address":"2200 W. Grand Blvd.","zip":"48208-1178 ","telephone":"(313) 899-7370","fax":"(313) 899-7373","config":"9 - 12, ESE","status":"Active","EC":0,"EL":0,"Mid":0,"High":1,"Type_1":"Secondary","shortName":"Northwestern","schoolWebsite":"https://www.detroitk12.org/northwestern","lat":42.3588,"lon":-83.1036,"url":"https://northwestern.detroitk12.org","ObjectID":90,"Principal":""}}]}